NORAD_CAT_ID,OBJECT_NAME,OBJECT_TYPE,EPOCH,MEAN_MOTION,ECCENTRICITY,INCLINATION,RA_OF_ASC_NODE,ARG_OF_PERICENTER,MEAN_ANOMALY,BSTAR,MEAN_MOTION_DOT,MEAN_MOTION_DDOT,TLE_LINE0,TLE_LINE1,TLE_LINE2,SEMIMAJOR_AXIS,PERIOD,APOGEE,PERIGEE,DECAYED
53014.0,STARLINK-4183,PAYLOAD,2024-02-18 17:43:35,15.08848413,0.0001209,53.2157,210.7794,91.1628,268.9503,0.00013378,1.842e-05,0.0,0 STARLINK-4183,1 53014U 22076AE  24049.73860624  .00001842  00000-0  13378-3 0  9995,2 53014  53.2157 210.7794 0001209  91.1628 268.9503 15.08848413 90236,6917.855,95.437,540.556,538.883,0.0
53014.0,STARLINK-4183,PAYLOAD,2024-02-18 20:54:21,15.08854675,0.0001182,53.216,210.184,88.1639,271.9489,9.5354e-05,1.231e-05,0.0,0 STARLINK-4183,1 53014U 22076AE  24049.87108333  .00001231  00000-0  95354-4 0  9999,2 53014  53.2160 210.1840 0001182  88.1639 271.9489 15.08854675 89786,6917.836,95.437,540.518,538.883,0.0
53014.0,STARLINK-4183,PAYLOAD,2024-02-19 14:23:37,15.0882892,0.000138,53.2172,206.9148,97.4284,262.6865,4.9016e-06,-2.1e-06,0.0,0 STARLINK-4183,1 53014U 22076AE  24050.59974524 -.00000210  00000-0  49016-5 0  9995,2 53014  53.2172 206.9148 0001380  97.4284 262.6865 15.08828920 89893,6917.914,95.438,540.734,538.825,0.0
53014.0,STARLINK-4183,PAYLOAD,2024-02-19 17:34:24,15.08829688,0.0001357,53.2176,206.3219,98.3277,261.7869,2.4439e-05,1.01e-06,0.0,0 STARLINK-4183,1 53014U 22076AE  24050.73222523  .00000101  00000-0  24439-4 0  9995,2 53014  53.2176 206.3219 0001357  98.3277 261.7869 15.08829688 90388,6917.912,95.438,540.716,538.838,0.0
53014.0,STARLINK-4183,PAYLOAD,2024-02-20 14:14:24,15.08838224,0.000129,53.2178,202.4563,97.7981,262.3157,2.4381e-05,1e-06,0.0,0 STARLINK-4183,1 53014U 22076AE  24051.59334308  .00000100  00000-0  24381-4 0  9990,2 53014  53.2178 202.4563 0001290  97.7981 262.3157 15.08838224 90046,6917.886,95.438,540.643,538.858,0.0
53014.0,STARLINK-4183,PAYLOAD,2024-02-20 19:00:34,15.08840853,0.0001285,53.2169,201.5587,86.1348,273.9791,4.2013e-05,3.81e-06,0.0,0 STARLINK-4183,1 53014U 22076AE  24051.79206140  .00000381  00000-0  42013-4 0  9997,2 53014  53.2169 201.5587 0001285  86.1348 273.9791 15.08840853 90543,6917.878,95.438,540.632,538.854,0.0
53014.0,STARLINK-4183,PAYLOAD,2024-02-21 14:05:11,15.08837165,0.0001486,53.2178,197.9899,72.764,287.3515,0.00018763,2.699e-05,0.0,0 STARLINK-4183,1 53014U 22076AE  24052.58694126  .00002699  00000-0  18763-3 0  9998,2 53014  53.2178 197.9899 0001486  72.7640 287.3515 15.08837165 90192,6917.889,95.438,540.782,538.726,0.0
53014.0,STARLINK-4183,PAYLOAD,2024-02-21 17:15:57,15.08845981,0.0001453,53.2175,197.3938,77.766,282.3495,0.0001449,2.019e-05,0.0,0 STARLINK-4183,1 53014U 22076AE  24052.71941744  .00002019  00000-0  14490-3 0  9993,2 53014  53.2175 197.3938 0001453  77.7660 282.3495 15.08845981 90218,6917.862,95.437,540.732,538.722,0.0
53014.0,STARLINK-4183,PAYLOAD,2024-02-22 02:48:16,15.08842079,0.0001291,53.217,195.6156,82.8958,277.2181,0.00015357,2.157e-05,0.0,0 STARLINK-4183,1 53014U 22076AE  24053.11685920  .00002157  00000-0  15357-3 0  9995,2 53014  53.2170 195.6156 0001291  82.8958 277.2181 15.08842079 90741,6917.874,95.437,540.632,538.846,0.0
53014.0,STARLINK-4183,PAYLOAD,2024-02-22 15:31:21,15.08839943,0.0001187,53.2151,193.235,89.2744,270.8384,0.00010561,1.393e-05,0.0,0 STARLINK-4183,1 53014U 22076AE  24053.64678108  .00001393  00000-0  10561-3 0  9996,2 53014  53.2151 193.2350 0001187  89.2744 270.8384 15.08839943 90355,6917.881,95.438,540.567,538.924,0.0
53014.0,STARLINK-4183,PAYLOAD,2024-02-23 12:11:22,15.08842906,0.0001222,53.2157,189.37,90.8874,269.2258,-3.2541e-05,-8.06e-06,0.0,0 STARLINK-4183,1 53014U 22076AE  24054.50790307 -.00000806  00000-0 -32541-4 0  9991,2 53014  53.2157 189.3700 0001222  90.8874 269.2258 15.08842906 90959,6917.872,95.437,540.582,538.891,0.0
53014.0,STARLINK-4183,PAYLOAD,2024-02-23 15:22:08,15.08851457,0.000118,53.2158,188.7742,100.5345,259.578,-5.98e-05,-1.24e-05,0.0,0 STARLINK-4183,1 53014U 22076AE  24054.64037791 -.00001240  00000-0 -59800-4 0  9997,2 53014  53.2158 188.7742 0001180 100.5345 259.5780 15.08851457 90508,6917.845,95.437,540.527,538.894,0.0
53014.0,STARLINK-4183,PAYLOAD,2024-02-24 12:02:10,15.08818355,0.0001277,53.2174,184.9091,104.0947,256.0188,0.00038042,5.768e-05,0.0,0 STARLINK-4183,1 53014U 22076AE  24055.50150974  .00005768  00000-0  38042-3 0  9993,2 53014  53.2174 184.9091 0001277 104.0947 256.0188 15.08818355 91106,6917.947,95.439,540.695,538.928,0.0
53014.0,STARLINK-4183,PAYLOAD,2024-02-24 15:12:55,15.08839964,0.0001199,53.217,184.3157,91.455,268.658,0.00011843,1.597e-05,0.0,0 STARLINK-4183,1 53014U 22076AE  24055.63398137  .00001597  00000-0  11843-3 0  9998,2 53014  53.2170 184.3157 0001199  91.4550 268.6580 15.08839964 90654,6917.88,95.438,540.575,538.916,0.0
53014.0,STARLINK-4183,PAYLOAD,2024-02-25 15:03:42,15.08843243,0.0001206,53.2161,179.8519,94.7219,265.391,7.8171e-05,9.57e-06,0.0,0 STARLINK-4183,1 53014U 22076AE  24056.62758082  .00000957  00000-0  78171-4 0  9994,2 53014  53.2161 179.8519 0001206  94.7219 265.3910 15.08843243 90805,6917.87,95.437,540.57,538.901,0.0
53014.0,STARLINK-4183,PAYLOAD,2024-02-25 18:14:29,15.08845904,0.0001213,53.216,179.2565,94.304,265.809,9.61e-05,1.242e-05,0.0,0 STARLINK-4183,1 53014U 22076AE  24056.76005844  .00001242  00000-0  96100-4 0  9990,2 53014  53.2160 179.2565 0001213  94.3040 265.8090 15.08845904 91299,6917.862,95.437,540.566,538.888,0.0
53014.0,STARLINK-4183,PAYLOAD,2024-02-26 00:36:02,15.08840479,0.0001226,53.2153,178.0659,91.874,268.2392,6.6944e-05,7.78e-06,0.0,0 STARLINK-4183,1 53014U 22076AE  24057.02502421  .00000778  00000-0  66944-4 0  9999,2 53014  53.2153 178.0659 0001226  91.8740 268.2392 15.08840479 91334,6917.879,95.438,540.592,538.896,0.0
53014.0,STARLINK-4183,PAYLOAD,2024-02-26 11:43:45,15.08829247,0.0001494,53.2182,175.9889,98.2368,261.8794,-4.9786e-05,-1.08e-05,0.0,0 STARLINK-4183,1 53014U 22076AE  24057.48871722 -.00001080  00000-0 -49786-4 0  9996,2 53014  53.2182 175.9889 0001494  98.2368 261.8794 15.08829247 91404,6917.913,95.438,540.812,538.745,0.0
53014.0,STARLINK-4183,PAYLOAD,2024-02-26 13:19:08,15.08830142,0.0001457,53.2179,175.6924,94.6897,265.4261,-4.4482e-05,-9.96e-06,0.0,0 STARLINK-4183,1 53014U 22076AE  24057.55495693 -.00000996  00000-0 -44482-4 0  9996,2 53014  53.2179 175.6924 0001457  94.6897 265.4261 15.08830142 90946,6917.911,95.438,540.783,538.768,0.0
53014.0,STARLINK-4183,PAYLOAD,2024-02-26 18:05:16,15.08839697,0.0001398,53.2173,174.7985,98.2733,261.8418,3.6716e-05,2.96e-06,0.0,0 STARLINK-4183,1 53014U 22076AE  24057.75366868  .00000296  00000-0  36716-4 0  9991,2 53014  53.2173 174.7985 0001398  98.2733 261.8418 15.08839697 91444,6917.881,95.438,540.713,538.779,0.0
53014.0,STARLINK-4183,PAYLOAD,2024-02-27 14:45:17,15.08845896,0.0001616,53.2173,170.9372,109.9403,250.1763,8.4415e-05,1.056e-05,0.0,0 STARLINK-4183,1 53014U 22076AE  24058.61478492  .00001056  00000-0  84415-4 0  9998,2 53014  53.2173 170.9372 0001616 109.9403 250.1763 15.08845896 91104,6917.862,95.437,540.845,538.609,0.0
53014.0,STARLINK-4183,PAYLOAD,2024-02-27 17:56:02,15.08857361,0.0001184,53.2156,170.336,90.0792,270.0336,0.00015222,2.137e-05,0.0,0 STARLINK-4183,1 53014U 22076AE  24058.74725464  .00002137  00000-0  15222-3 0  9996,2 53014  53.2156 170.3360 0001184  90.0792 270.0336 15.08857361 91597,6917.827,95.436,540.511,538.873,0.0
53014.0,STARLINK-4183,PAYLOAD,2024-02-28 00:17:36,15.08833942,8.89e-05,53.2168,169.1456,92.8777,267.2317,3.6063e-06,-2.3e-06,0.0,0 STARLINK-4183,1 53014U 22076AE  24059.01223207 -.00000230  00000-0  36063-5 0  9996,2 53014  53.2168 169.1456 0000889  92.8777 267.2317 15.08833942 91637,6917.899,95.438,540.379,539.149,0.0
53014.0,STARLINK-4183,PAYLOAD,2024-02-28 14:36:05,15.08838069,0.0001438,53.217,166.4725,94.6562,265.4594,4.7828e-05,4.73e-06,0.0,0 STARLINK-4183,1 53014U 22076AE  24059.60839453  .00000473  00000-0  47828-4 0  9995,2 53014  53.2170 166.4725 0001438  94.6562 265.4594 15.08838069 91252,6917.886,95.438,540.746,538.756,0.0
53014.0,STARLINK-4183,PAYLOAD,2024-02-28 16:11:28,15.08839949,0.0001439,53.217,166.175,92.0056,268.1101,6.0286e-05,6.72e-06,0.0,0 STARLINK-4183,1 53014U 22076AE  24059.67463327  .00000672  00000-0  60286-4 0  9999,2 53014  53.2170 166.1750 0001439  92.0056 268.1101 15.08839949 91261,6917.881,95.438,540.741,538.75,0.0
53014.0,STARLINK-4183,PAYLOAD,2024-02-29 12:51:28,15.08849726,0.0001377,53.2164,162.3098,91.2307,268.8843,1.5305e-05,-4.4e-07,0.0,0 STARLINK-4183,1 53014U 22076AE  24060.53574880 -.00000044  00000-0  15305-4 0  9999,2 53014  53.2164 162.3098 0001377  91.2307 268.8843 15.08849726 91868,6917.851,95.437,540.668,538.763,0.0
53014.0,STARLINK-4183,PAYLOAD,2024-02-29 14:26:51,15.08852209,0.0001326,53.2169,162.0123,86.7015,273.4129,3.2838e-05,2.35e-06,0.0,0 STARLINK-4183,1 53014U 22076AE  24060.60198649  .00000235  00000-0  32838-4 0  9993,2 53014  53.2169 162.0123 0001326  86.7015 273.4129 15.08852209 91407,6917.843,95.437,540.625,538.791,0.0
53014.0,STARLINK-4183,PAYLOAD,2024-03-01 12:42:15,15.08842362,0.0001345,53.2172,157.8502,91.5603,268.5543,0.00015415,2.166e-05,0.0,0 STARLINK-4183,1 53014U 22076AE  24061.52934892  .00002166  00000-0  15415-3 0  9999,2 53014  53.2172 157.8502 0001345  91.5603 268.5543 15.08842362 91541,6917.873,95.437,540.669,538.808,0.0
53014.0,STARLINK-4183,PAYLOAD,2024-03-02 12:33:02,15.08850307,0.0001356,53.2163,153.3903,84.8942,275.2205,9.9498e-05,1.296e-05,0.0,0 STARLINK-4183,1 53014U 22076AE  24062.52294228  .00001296  00000-0  99498-4 0  9999,2 53014  53.2163 153.3903 0001356  84.8942 275.2205 15.08850307 91694,6917.849,95.437,540.652,538.776,0.0
53014.0,STARLINK-4183,PAYLOAD,2024-03-03 12:23:50,15.08832121,0.0001542,53.2174,148.9292,97.3039,262.8128,-5.0272e-05,-1.088e-05,0.0,0 STARLINK-4183,1 53014U 22076AE  24063.51655954 -.00001088  00000-0 -50272-4 0  9994,2 53014  53.2174 148.9292 0001542  97.3039 262.8128 15.08832121 92310,6917.904,95.438,540.836,538.703,0.0
